{"type": "FeatureCollection", "features": [ {"type": "Feature", "properties": {"norad_id": 66939, "name": "STARLINK-36154", "group": "last-30-days", "lat": -38.9830764273209, "lon": -54.51715904464151, "alt_km": 403.7541806963636, "timestamp": "2025-12-26T07:29:17.194958+00:00", "meta": {"OBJECT_NAME": "STARLINK-36154", "OBJECT_ID": "2025-286Q", "EPOCH": "2025-12-25T22:00:01.999584", "MEAN_MOTION": 15.57980679, "ECCENTRICITY": 0.0001644, "INCLINATION": 53.1591, "RA_OF_ASC_NODE": 344.752, "ARG_OF_PERICENTER": 104.8256, "MEAN_ANOMALY": 146.1566, "EPHEMERIS_TYPE": 0, "CLASSIFICATION_TYPE": "U", "NORAD_CAT_ID": 66939, "ELEMENT_SET_NO": 999, "REV_AT_EPOCH": 410, "BSTAR": -0.029265799, "MEAN_MOTION_DOT": -0.01963188, "MEAN_MOTION_DDOT": 0}, "tle": {"line1": "1 66939U 25286Q   25359.91668981 -.01963188  00000+0 -29266-1 0  9991", "line2": "2 66939  53.1591 344.7520 0001644 104.8256 146.1566 15.57980679  4106"}}, "geometry": {"type": "Point", "coordinates": [-54.51715904464151, -38.9830764273209]}}, {"type": "Feature", "properties": {"norad_id": 66940, "name": "STARLINK-36121", "group": "last-30-days", "lat": -37.752326099228696, "lon": -52.65374474590523, "alt_km": 403.55429789336176, "timestamp": "2025-12-26T07:29:17.194968+00:00", "meta": {"OBJECT_NAME": "STARLINK-36121", "OBJECT_ID": "2025-286R", "EPOCH": "2025-12-25T22:00:01.999584", "MEAN_MOTION": 15.57981857, "ECCENTRICITY": 0.00015274, "INCLINATION": 53.1595, "RA_OF_ASC_NODE": 344.749, "ARG_OF_PERICENTER": 96.4648, "MEAN_ANOMALY": 156.4372, "EPHEMERIS_TYPE": 0, "CLASSIFICATION_TYPE": "U", "NORAD_CAT_ID": 66940, "ELEMENT_SET_NO": 999, "REV_AT_EPOCH": 410, "BSTAR": -0.029380615, "MEAN_MOTION_DOT": -0.01969939, "MEAN_MOTION_DDOT": 0}, "tle": {"line1": "1 66940U 25286R   25359.91668981 -.01969939  00000+0 -29381-1 0  9991", "line2": "2 66940  53.1595 344.7490 0001527  96.4648 156.4372 15.57981857  4107"}}, "geometry": {"type": "Point", "coordinates": [-52.65374474590523, -37.752326099228696]}}, {"type": "Feature", "properties": {"norad_id": 66941, "name": "STARLINK-36088", "group": "last-30-days", "lat": -22.56553597482464, "lon": -35.3610084161957, "alt_km": 396.83496537072915, "timestamp": "2025-12-26T07:29:17.194980+00:00", "meta": {"OBJECT_NAME": "STARLINK-36088", "OBJECT_ID": "2025-286S", "EPOCH": "2025-12-25T22:00:01.999584", "MEAN_MOTION": 15.59849262, "ECCENTRICITY": 0.00014531, "INCLINATION": 53.1593, "RA_OF_ASC_NODE": 344.7106, "ARG_OF_PERICENTER": 100.7253, "MEAN_ANOMALY": 170.7898, "EPHEMERIS_TYPE": 0, "CLASSIFICATION_TYPE": "U", "NORAD_CAT_ID": 66941, "ELEMENT_SET_NO": 999, "REV_AT_EPOCH": 410, "BSTAR": -0.026975097, "MEAN_MOTION_DOT": -0.01945978, "MEAN_MOTION_DDOT": 0}, "tle": {"line1": "1 66941U 25286S   25359.91668981 -.01945978  00000+0 -26975-1 0  9995", "line2": "2 66941  53.1593 344.7106 0001453 100.7253 170.7898 15.59849262  4106"}}, "geometry": {"type": "Point", "coordinates": [-35.3610084161957, -22.56553597482464]}}, {"type": "Feature", "properties": {"norad_id": 66942, "name": "STARLINK-36100", "group": "last-30-days", "lat": -36.49092999322443, "lon": -50.85134926974576, "alt_km": 403.4718250516671, "timestamp": "2025-12-26T07:29:17.194990+00:00", "meta": {"OBJECT_NAME": "STARLINK-36100", "OBJECT_ID": "2025-286T", "EPOCH": "2025-12-25T22:00:01.999584", "MEAN_MOTION": 15.57981407, "ECCENTRICITY": 0.00015168, "INCLINATION": 53.1593, "RA_OF_ASC_NODE": 344.7446, "ARG_OF_PERICENTER": 97.3912, "MEAN_ANOMALY": 157.4284, "EPHEMERIS_TYPE": 0, "CLASSIFICATION_TYPE": "U", "NORAD_CAT_ID": 66942, "ELEMENT_SET_NO": 999, "REV_AT_EPOCH": 404, "BSTAR": -0.02936739, "MEAN_MOTION_DOT": -0.01969124, "MEAN_MOTION_DDOT": 0}, "tle": {"line1": "1 66942U 25286T   25359.91668981 -.01969124  00000+0 -29367-1 0  9993", "line2": "2 66942  53.1593 344.7446 0001516  97.3912 157.4284 15.57981407  4047"}}, "geometry": {"type": "Point", "coordinates": [-50.85134926974576, -36.49092999322443]}}, {"type": "Feature", "properties": {"norad_id": 66943, "name": "STARLINK-36109", "group": "last-30-days", "lat": -35.20307962149056, "lon": -49.10744919186804, "alt_km": 403.404060245839, "timestamp": "2025-12-26T07:29:17.195000+00:00", "meta": {"OBJECT_NAME": "STARLINK-36109", "OBJECT_ID": "2025-286U", "EPOCH": "2025-12-25T22:00:01.999584", "MEAN_MOTION": 15.57979593, "ECCENTRICITY": 0.00015192, "INCLINATION": 53.159, "RA_OF_ASC_NODE": 344.7402, "ARG_OF_PERICENTER": 99.7478, "MEAN_ANOMALY": 156.9897, "EPHEMERIS_TYPE": 0, "CLASSIFICATION_TYPE": "U", "NORAD_CAT_ID": 66943, "ELEMENT_SET_NO": 999, "REV_AT_EPOCH": 404, "BSTAR": -0.029320791, "MEAN_MOTION_DOT": -0.01966265, "MEAN_MOTION_DDOT": 0}, "tle": {"line1": "1 66943U 25286U   25359.91668981 -.01966265  00000+0 -29321-1 0  9997", "line2": "2 66943  53.1590 344.7402 0001519  99.7478 156.9897 15.57979593  4040"}}, "geometry": {"type": "Point", "coordinates": [-49.10744919186804, -35.20307962149056]}}, {"type": "Feature", "properties": {"norad_id": 66944, "name": "STARLINK-36112", "group": "last-30-days", "lat": -33.89169731030265, "lon": -47.41896000539779, "alt_km": 403.3220346187027, "timestamp": "2025-12-26T07:29:17.195010+00:00", "meta": {"OBJECT_NAME": "STARLINK-36112", "OBJECT_ID": "2025-286V", "EPOCH": "2025-12-25T22:00:01.999584", "MEAN_MOTION": 15.57981464, "ECCENTRICITY": 0.00015062, "INCLINATION": 53.159, "RA_OF_ASC_NODE": 344.7361, "ARG_OF_PERICENTER": 101.982, "MEAN_ANOMALY": 156.67, "EPHEMERIS_TYPE": 0, "CLASSIFICATION_TYPE": "U", "NORAD_CAT_ID": 66944, "ELEMENT_SET_NO": 999, "REV_AT_EPOCH": 410, "BSTAR": -0.029342125, "MEAN_MOTION_DOT": -0.01967634, "MEAN_MOTION_DDOT": 0}, "tle": {"line1": "1 66944U 25286V   25359.91668981 -.01967634  00000+0 -29342-1 0  9992", "line2": "2 66944  53.1590 344.7361 0001506 101.9820 156.6700 15.57981464  4105"}}, "geometry": {"type": "Point", "coordinates": [-47.41896000539779, -33.89169731030265]}}, {"type": "Feature", "properties": {"norad_id": 66945, "name": "STARLINK-36110", "group": "last-30-days", "lat": -32.5581887218219, "lon": -45.78234580990071, "alt_km": 403.21582140362716, "timestamp": "2025-12-26T07:29:17.195021+00:00", "meta": {"OBJECT_NAME": "STARLINK-36110", "OBJECT_ID": "2025-286W", "EPOCH": "2025-12-25T22:00:01.999584", "MEAN_MOTION": 15.57978964, "ECCENTRICITY": 0.00014987, "INCLINATION": 53.1595, "RA_OF_ASC_NODE": 344.7316, "ARG_OF_PERICENTER": 101.9814, "MEAN_ANOMALY": 158.5878, "EPHEMERIS_TYPE": 0, "CLASSIFICATION_TYPE": "U", "NORAD_CAT_ID": 66945, "ELEMENT_SET_NO": 999, "REV_AT_EPOCH": 410, "BSTAR": -0.029273462, "MEAN_MOTION_DOT": -0.01963422, "MEAN_MOTION_DDOT": 0}, "tle": {"line1": "1 66945U 25286W   25359.91668981 -.01963422  00000+0 -29273-1 0  9997", "line2": "2 66945  53.1595 344.7316 0001498 101.9814 158.5878 15.57978964  4102"}}, "geometry": {"type": "Point", "coordinates": [-45.78234580990071, -32.5581887218219]}}, {"type": "Feature", "properties": {"norad_id": 66946, "name": "STARLINK-36115", "group": "last-30-days", "lat": -31.203120419335228, "lon": -44.19382253831987, "alt_km": 403.0767501556011, "timestamp": "2025-12-26T07:29:17.195031+00:00", "meta": {"OBJECT_NAME": "STARLINK-36115", "OBJECT_ID": "2025-286X", "EPOCH": "2025-12-25T22:00:01.999584", "MEAN_MOTION": 15.57980052, "ECCENTRICITY": 0.00014716, "INCLINATION": 53.1589, "RA_OF_ASC_NODE": 344.7277, "ARG_OF_PERICENTER": 99.3274, "MEAN_ANOMALY": 163.1594, "EPHEMERIS_TYPE": 0, "CLASSIFICATION_TYPE": "U", "NORAD_CAT_ID": 66946, "ELEMENT_SET_NO": 999, "REV_AT_EPOCH": 410, "BSTAR": -0.029318827, "MEAN_MOTION_DOT": -0.01966146, "MEAN_MOTION_DDOT": 0}, "tle": {"line1": "1 66946U 25286X   25359.91668981 -.01966146  00000+0 -29319-1 0  9995", "line2": "2 66946  53.1589 344.7277 0001471  99.3274 163.1594 15.57980052  4101"}}, "geometry": {"type": "Point", "coordinates": [-44.19382253831987, -31.203120419335228]}}, {"type": "Feature", "properties": {"norad_id": 66947, "name": "STARLINK-36089", "group": "last-30-days", "lat": -28.438460253632186, "lon": -41.15009897671159, "alt_km": 402.95275508514715, "timestamp": "2025-12-26T07:29:17.195041+00:00", "meta": {"OBJECT_NAME": "STARLINK-36089", "OBJECT_ID": "2025-286Y", "EPOCH": "2025-12-25T22:00:01.999584", "MEAN_MOTION": 15.57983752, "ECCENTRICITY": 0.00015921, "INCLINATION": 53.1591, "RA_OF_ASC_NODE": 344.7191, "ARG_OF_PERICENTER": 102.5472, "MEAN_ANOMALY": 163.7711, "EPHEMERIS_TYPE": 0, "CLASSIFICATION_TYPE": "U", "NORAD_CAT_ID": 66947, "ELEMENT_SET_NO": 999, "REV_AT_EPOCH": 410, "BSTAR": -0.029401802, "MEAN_MOTION_DOT": -0.01971357, "MEAN_MOTION_DDOT": 0}, "tle": {"line1": "1 66947U 25286Y   25359.91668981 -.01971357  00000+0 -29402-1 0  9999", "line2": "2 66947  53.1591 344.7191 0001592 102.5472 163.7711 15.57983752  4108"}}, "geometry": {"type": "Point", "coordinates": [-41.15009897671159, -28.438460253632186]}}, {"type": "Feature", "properties": {"norad_id": 66948, "name": "STARLINK-36116", "group": "last-30-days", "lat": -29.829316112084957, "lon": -42.650571130814285, "alt_km": 402.9607340728844, "timestamp": "2025-12-26T07:29:17.195050+00:00", "meta": {"OBJECT_NAME": "STARLINK-36116", "OBJECT_ID": "2025-286Z", "EPOCH": "2025-12-25T22:00:01.999584", "MEAN_MOTION": 15.57980236, "ECCENTRICITY": 0.00014764, "INCLINATION": 53.1591, "RA_OF_ASC_NODE": 344.7233, "ARG_OF_PERICENTER": 98.8997, "MEAN_ANOMALY": 165.5028, "EPHEMERIS_TYPE": 0, "CLASSIFICATION_TYPE": "U", "NORAD_CAT_ID": 66948, "ELEMENT_SET_NO": 999, "REV_AT_EPOCH": 410, "BSTAR": -0.029293034, "MEAN_MOTION_DOT": -0.01964643, "MEAN_MOTION_DDOT": 0}, "tle": {"line1": "1 66948U 25286Z   25359.91668981 -.01964643  00000+0 -29293-1 0  9998", "line2": "2 66948  53.1591 344.7233 0001476  98.8997 165.5028 15.57980236  4101"}}, "geometry": {"type": "Point", "coordinates": [-42.650571130814285, -29.829316112084957]}}]}